GRBBETA                 
1 60237U 24128C   24207.89460208  .00004435  00000+0  39992-3 0  9997
2 60237  61.9944 106.1222 0010454 291.0636  68.9334 14.96976150  2393
OOV-CUBE                
1 60240U 24128F   24207.90043977  .00003155  00000+0  29366-3 0  9995
2 60240  61.9981 106.1596 0010201 273.9249  86.0673 14.96404007  2407
ROBUSTA-3A (MEDITERRAN*)
1 60243U 24128J   24207.90705591  .00006223  00000+0  56976-3 0  9991
2 60243  61.9921 106.1718 0012721 263.2349  96.7291 14.95862549  2404
